{"fetched_at":"2026-03-29T16:36:15Z","count":15609,"tles":[{"name":"STARLINK-1810","line1":"1 46709U 20073AR  26087.86263979  .00083289  00000+0  14489-2 0  9998","line2":"2 46709  53.0467 140.1699 0002333 334.4610  25.6282 15.50093664300237","category":"Starlink"}]}